EXO-0                   
1 59175U 23174DK  26068.71046781  .00011582  00000+0  36716-3 0  9992
2 59175  97.3864 148.9039 0009878 157.1125 203.0559 15.32821991129797
STARLINK-32728          
1 62948U 25029A   26068.70910743  .00022143  00000+0  75755-3 0  9993
2 62948  53.1601 230.0213 0000778  36.0125 324.0928 15.30198454 61394
